QZS-1R                  
1 49336U 21096A   24121.23121286 -.00000193  00000+0  00000+0 0  9990
2 49336  35.8475  91.2535 0753322 270.5660  75.2798  1.00275486  9204
